STARLINK-5663           
1 55347U 23013S   26068.04447500 -.00001908  00000+0 -12622-3 0  9994
2 55347  43.0041 303.7282 0000805 243.6886 116.3874 15.02539408171616
PICO-02A021             
1 60538U 24149BY  26068.15390193  .00008488  00000+0  64833-3 0  9999
2 60538  97.6823 147.9080 0004195   9.5557 350.5747 15.02201963 84718
